{"type": "FeatureCollection", "features": [ {"type": "Feature", "properties": {"norad_id": 40664, "name": "SKY MEXICO-1", "group": "intelsat", "lat": 0.008785569377235762, "lon": -9.492747145442609, "alt_km": 35782.0512126743, "timestamp": "2025-12-19T22:41:52.047230+00:00", "meta": {"OBJECT_NAME": "SKY MEXICO-1", "OBJECT_ID": "2015-026B", "EPOCH": "2025-12-19T09:43:10.843104", "MEAN_MOTION": 1.00272289, "ECCENTRICITY": 0.000231, "INCLINATION": 0.0116, "RA_OF_ASC_NODE": 321.764, "ARG_OF_PERICENTER": 322.6243, "MEAN_ANOMALY": 230.8994, "EPHEMERIS_TYPE": 0, "CLASSIFICATION_TYPE": "U", "NORAD_CAT_ID": 40664, "ELEMENT_SET_NO": 999, "REV_AT_EPOCH": 3865, "BSTAR": 0, "MEAN_MOTION_DOT": -2.1e-06, "MEAN_MOTION_DDOT": 0}, "tle": {"line1": "1 40664U 15026B   25353.40498661 -.00000210  00000+0  00000+0 0  9992", "line2": "2 40664   0.0116 321.7640 0002310 322.6243 230.8994  1.00272289 38659"}}, "geometry": {"type": "Point", "coordinates": [-9.492747145442609, 0.008785569377235762]}}, {"type": "Feature", "properties": {"norad_id": 40874, "name": "INTELSAT 34 (IS-34)", "group": "intelsat", "lat": 0.020112731586689435, "lon": 13.73351384990163, "alt_km": 35788.58857849173, "timestamp": "2025-12-19T22:41:52.047242+00:00", "meta": {"OBJECT_NAME": "INTELSAT 34 (IS-34)", "OBJECT_ID": "2015-039A", "EPOCH": "2025-12-19T11:17:13.926048", "MEAN_MOTION": 1.00271344, "ECCENTRICITY": 7.39e-05, "INCLINATION": 0.0152, "RA_OF_ASC_NODE": 339.5057, "ARG_OF_PERICENTER": 173.0812, "MEAN_ANOMALY": 49.536, "EPHEMERIS_TYPE": 0, "CLASSIFICATION_TYPE": "U", "NORAD_CAT_ID": 40874, "ELEMENT_SET_NO": 999, "REV_AT_EPOCH": 3782, "BSTAR": 0, "MEAN_MOTION_DOT": -2.61e-06, "MEAN_MOTION_DDOT": 0}, "tle": {"line1": "1 40874U 15039A   25353.47030007 -.00000261  00000+0  00000+0 0  9998", "line2": "2 40874   0.0152 339.5057 0000739 173.0812  49.5360  1.00271344 37825"}}, "geometry": {"type": "Point", "coordinates": [13.73351384990163, 0.020112731586689435]}}, {"type": "Feature", "properties": {"norad_id": 41581, "name": "INTELSAT 31 (IS-31)", "group": "intelsat", "lat": 0.011046661674210895, "lon": -25.79277264411872, "alt_km": 35793.398218200215, "timestamp": "2025-12-19T22:41:52.047254+00:00", "meta": {"OBJECT_NAME": "INTELSAT 31 (IS-31)", "OBJECT_ID": "2016-035A", "EPOCH": "2025-12-19T12:19:46.200288", "MEAN_MOTION": 1.0026847, "ECCENTRICITY": 0.0002165, "INCLINATION": 0.0258, "RA_OF_ASC_NODE": 271.2551, "ARG_OF_PERICENTER": 288.2416, "MEAN_ANOMALY": 338.7582, "EPHEMERIS_TYPE": 0, "CLASSIFICATION_TYPE": "U", "NORAD_CAT_ID": 41581, "ELEMENT_SET_NO": 999, "REV_AT_EPOCH": 3488, "BSTAR": 0, "MEAN_MOTION_DOT": -1.26e-06, "MEAN_MOTION_DDOT": 0}, "tle": {"line1": "1 41581U 16035A   25353.51372917 -.00000126  00000+0  00000+0 0  9995", "line2": "2 41581   0.0258 271.2551 0002165 288.2416 338.7582  1.00268470 34881"}}, "geometry": {"type": "Point", "coordinates": [-25.79277264411872, 0.011046661674210895]}}, {"type": "Feature", "properties": {"norad_id": 41747, "name": "INTELSAT 36 (IS-36)", "group": "intelsat", "lat": 0.02613543811346408, "lon": 137.72605453746334, "alt_km": 35791.673901382, "timestamp": "2025-12-19T22:41:52.047266+00:00", "meta": {"OBJECT_NAME": "INTELSAT 36 (IS-36)", "OBJECT_ID": "2016-053A", "EPOCH": "2025-12-19T10:09:53.233056", "MEAN_MOTION": 1.0026976, "ECCENTRICITY": 0.0001215, "INCLINATION": 0.0112, "RA_OF_ASC_NODE": 5.6919, "ARG_OF_PERICENTER": 321.406, "MEAN_ANOMALY": 342.1301, "EPHEMERIS_TYPE": 0, "CLASSIFICATION_TYPE": "U", "NORAD_CAT_ID": 41747, "ELEMENT_SET_NO": 999, "REV_AT_EPOCH": 3414, "BSTAR": 0, "MEAN_MOTION_DOT": 1e-08, "MEAN_MOTION_DDOT": 0}, "tle": {"line1": "1 41747U 16053A   25353.42353279  .00000001  00000+0  00000+0 0  9990", "line2": "2 41747   0.0112   5.6919 0001215 321.4060 342.1301  1.00269760 34141"}}, "geometry": {"type": "Point", "coordinates": [137.72605453746334, 0.02613543811346408]}}, {"type": "Feature", "properties": {"norad_id": 41945, "name": "INTELSAT 32E (IS-32E)", "group": "intelsat", "lat": -0.01036055186498453, "lon": 26.056237450743986, "alt_km": 35783.723487642965, "timestamp": "2025-12-19T22:41:52.047277+00:00", "meta": {"OBJECT_NAME": "INTELSAT 32E (IS-32E)", "OBJECT_ID": "2017-007B", "EPOCH": "2025-12-19T06:12:37.307232", "MEAN_MOTION": 1.00269829, "ECCENTRICITY": 7.1e-05, "INCLINATION": 0.0325, "RA_OF_ASC_NODE": 74.0804, "ARG_OF_PERICENTER": 315.5885, "MEAN_ANOMALY": 108.4146, "EPHEMERIS_TYPE": 0, "CLASSIFICATION_TYPE": "U", "NORAD_CAT_ID": 41945, "ELEMENT_SET_NO": 999, "REV_AT_EPOCH": 3242, "BSTAR": 0, "MEAN_MOTION_DOT": -2.44e-06, "MEAN_MOTION_DDOT": 0}, "tle": {"line1": "1 41945U 17007B   25353.25876513 -.00000244  00000+0  00000+0 0  9992", "line2": "2 41945   0.0325  74.0804 0000710 315.5885 108.4146  1.00269829 32423"}}, "geometry": {"type": "Point", "coordinates": [26.056237450743986, -0.01036055186498453]}}, {"type": "Feature", "properties": {"norad_id": 42818, "name": "INTELSAT 35E (IS-35E)", "group": "intelsat", "lat": 0.0031873534544284887, "lon": 34.775552453033676, "alt_km": 35790.39601000237, "timestamp": "2025-12-19T22:41:52.047289+00:00", "meta": {"OBJECT_NAME": "INTELSAT 35E (IS-35E)", "OBJECT_ID": "2017-041A", "EPOCH": "2025-12-19T11:20:21.674976", "MEAN_MOTION": 1.00271336, "ECCENTRICITY": 0.0001837, "INCLINATION": 0.0061, "RA_OF_ASC_NODE": 84.092, "ARG_OF_PERICENTER": 188.559, "MEAN_ANOMALY": 311.2747, "EPHEMERIS_TYPE": 0, "CLASSIFICATION_TYPE": "U", "NORAD_CAT_ID": 42818, "ELEMENT_SET_NO": 999, "REV_AT_EPOCH": 3101, "BSTAR": 0, "MEAN_MOTION_DOT": -2.13e-06, "MEAN_MOTION_DDOT": 0}, "tle": {"line1": "1 42818U 17041A   25353.47247309 -.00000213  00000+0  00000+0 0  9995", "line2": "2 42818   0.0061  84.0920 0001837 188.5590 311.2747  1.00271336 31013"}}, "geometry": {"type": "Point", "coordinates": [34.775552453033676, 0.0031873534544284887]}}, {"type": "Feature", "properties": {"norad_id": 42950, "name": "INTELSAT 37E (IS-37E)", "group": "intelsat", "lat": 0.03589919912516746, "lon": 51.2415186362526, "alt_km": 35797.891163644585, "timestamp": "2025-12-19T22:41:52.047301+00:00", "meta": {"OBJECT_NAME": "INTELSAT 37E (IS-37E)", "OBJECT_ID": "2017-059A", "EPOCH": "2025-12-19T09:45:18.086976", "MEAN_MOTION": 1.00269424, "ECCENTRICITY": 0.000296, "INCLINATION": 0.0268, "RA_OF_ASC_NODE": 16.2864, "ARG_OF_PERICENTER": 242.3064, "MEAN_ANOMALY": 317.9748, "EPHEMERIS_TYPE": 0, "CLASSIFICATION_TYPE": "U", "NORAD_CAT_ID": 42950, "ELEMENT_SET_NO": 999, "REV_AT_EPOCH": 3026, "BSTAR": 0, "MEAN_MOTION_DOT": 0, "MEAN_MOTION_DDOT": 0}, "tle": {"line1": "1 42950U 17059A   25353.40645934  .00000000  00000+0  00000+0 0  9993", "line2": "2 42950   0.0268  16.2864 0002960 242.3064 317.9748  1.00269424 30261"}}, "geometry": {"type": "Point", "coordinates": [51.2415186362526, 0.03589919912516746]}}, {"type": "Feature", "properties": {"norad_id": 43632, "name": "AZERSPACE 2 (IS-38)", "group": "intelsat", "lat": 0.02515060004074842, "lon": 114.35421480244628, "alt_km": 35790.83722889537, "timestamp": "2025-12-19T22:41:52.047313+00:00", "meta": {"OBJECT_NAME": "AZERSPACE 2 (IS-38)", "OBJECT_ID": "2018-074A", "EPOCH": "2025-12-19T15:11:28.989888", "MEAN_MOTION": 1.00270569, "ECCENTRICITY": 0.0001143, "INCLINATION": 0.0061, "RA_OF_ASC_NODE": 40.7012, "ARG_OF_PERICENTER": 230.518, "MEAN_ANOMALY": 90.2474, "EPHEMERIS_TYPE": 0, "CLASSIFICATION_TYPE": "U", "NORAD_CAT_ID": 43632, "ELEMENT_SET_NO": 999, "REV_AT_EPOCH": 2664, "BSTAR": 0, "MEAN_MOTION_DOT": 1.61e-06, "MEAN_MOTION_DDOT": 0}, "tle": {"line1": "1 43632U 18074A   25353.63297442  .00000161  00000+0  00000+0 0  9999", "line2": "2 43632   0.0061  40.7012 0001143 230.5180  90.2474  1.00270569 26643"}}, "geometry": {"type": "Point", "coordinates": [114.35421480244628, 0.02515060004074842]}}, {"type": "Feature", "properties": {"norad_id": 43633, "name": "HORIZONS-3E", "group": "intelsat", "lat": -0.014064910813391788, "lon": -121.77188114627086, "alt_km": 35784.93713003126, "timestamp": "2025-12-19T22:41:52.047325+00:00", "meta": {"OBJECT_NAME": "HORIZONS-3E", "OBJECT_ID": "2018-074B", "EPOCH": "2025-12-19T11:25:38.578080", "MEAN_MOTION": 1.00273661, "ECCENTRICITY": 4.75e-05, "INCLINATION": 0.0419, "RA_OF_ASC_NODE": 184.4159, "ARG_OF_PERICENTER": 126.4195, "MEAN_ANOMALY": 117.8859, "EPHEMERIS_TYPE": 0, "CLASSIFICATION_TYPE": "U", "NORAD_CAT_ID": 43633, "ELEMENT_SET_NO": 999, "REV_AT_EPOCH": 2653, "BSTAR": 0, "MEAN_MOTION_DOT": -5e-08, "MEAN_MOTION_DDOT": 0}, "tle": {"line1": "1 43633U 18074B   25353.47614095 -.00000005  00000+0  00000+0 0  9997", "line2": "2 43633   0.0419 184.4159 0000475 126.4195 117.8859  1.00273661 26532"}}, "geometry": {"type": "Point", "coordinates": [-121.77188114627086, -0.014064910813391788]}}, {"type": "Feature", "properties": {"norad_id": 44333, "name": "AT&T T-16", "group": "intelsat", "lat": -0.029278679004576817, "lon": -31.616869292135, "alt_km": 35791.3928777707, "timestamp": "2025-12-19T22:41:52.047336+00:00", "meta": {"OBJECT_NAME": "AT&T T-16", "OBJECT_ID": "2019-034A", "EPOCH": "2025-12-19T13:25:39.897120", "MEAN_MOTION": 1.00270126, "ECCENTRICITY": 0.000115, "INCLINATION": 0.0216, "RA_OF_ASC_NODE": 60.6149, "ARG_OF_PERICENTER": 88.5847, "MEAN_ANOMALY": 39.7646, "EPHEMERIS_TYPE": 0, "CLASSIFICATION_TYPE": "U", "NORAD_CAT_ID": 44333, "ELEMENT_SET_NO": 999, "REV_AT_EPOCH": 2383, "BSTAR": 0, "MEAN_MOTION_DOT": -9.1e-07, "MEAN_MOTION_DDOT": 0}, "tle": {"line1": "1 44333U 19034A   25353.55948955 -.00000091  00000+0  00000+0 0  9991", "line2": "2 44333   0.0216  60.6149 0001150  88.5847  39.7646  1.00270126 23831"}}, "geometry": {"type": "Point", "coordinates": [-31.616869292135, -0.029278679004576817]}}]}